[Satellite]
VERSION=1.1
NAME=BEIDOU G3
NICKNAME=BEIDOU G3
TLE1=1 36590U 10024A   15055.01562786 -.00000380  00000-0  10000-3 0  9997
TLE2=2 36590   1.4418  25.6774 0003719 302.9224 301.0305  1.00266656 17356
